LEMUR-2-ANDIS           
1 42838U 17042P   26068.55941107  .00023598  00000+0  79875-3 0  9998
2 42838  97.3659 249.7950 0009101   4.3248 355.8070 15.30557934473198
STARLINK-35362          
1 65888U 25224G   26068.24335319  .00045184  00000+0  15276-2 0  9996
2 65888  53.1620  13.5923 0001265 231.4894 128.5994 15.30218770 24752
