[{"OBJECT_NAME":"LEMUR-2-ANDIS","OBJECT_ID":"2017-042P","EPOCH":"2026-03-09T13:25:33.116448","MEAN_MOTION":15.30557934,"ECCENTRICITY":0.0009101,"INCLINATION":97.3659,"RA_OF_ASC_NODE":249.795,"ARG_OF_PERICENTER":4.3248,"MEAN_ANOMALY":355.807,"EPHEMERIS_TYPE":0,"CLASSIFICATION_TYPE":"U","NORAD_CAT_ID":42838,"ELEMENT_SET_NO":999,"REV_AT_EPOCH":47319,"BSTAR":0.00079875,"MEAN_MOTION_DOT":0.00023598,"MEAN_MOTION_DDOT":0},{"OBJECT_NAME":"STARLINK-35362","OBJECT_ID":"2025-224G","EPOCH":"2026-03-09T05:50:25.715616","MEAN_MOTION":15.3021877,"ECCENTRICITY":0.00012652,"INCLINATION":53.162,"RA_OF_ASC_NODE":13.5923,"ARG_OF_PERICENTER":231.4894,"MEAN_ANOMALY":128.5994,"EPHEMERIS_TYPE":0,"CLASSIFICATION_TYPE":"U","NORAD_CAT_ID":65888,"ELEMENT_SET_NO":999,"REV_AT_EPOCH":2475,"BSTAR":0.0015275517,"MEAN_MOTION_DOT":0.00045184,"MEAN_MOTION_DDOT":0}]
